{"type": "FeatureCollection", "features": [ {"type": "Feature", "properties": {"norad_id": 60989, "name": "SENTINEL-2C", "group": "resource", "lat": -80.90306265775858, "lon": 178.8303255953774, "alt_km": 797.1701406859875, "timestamp": "2025-12-22T18:58:53.078700+00:00", "meta": {"OBJECT_NAME": "SENTINEL-2C", "OBJECT_ID": "2024-157A", "EPOCH": "2025-12-22T02:37:57.768096", "MEAN_MOTION": 14.30821207, "ECCENTRICITY": 0.00011935, "INCLINATION": 98.5671, "RA_OF_ASC_NODE": 68.4569, "ARG_OF_PERICENTER": 95.079, "MEAN_ANOMALY": 265.0529, "EPHEMERIS_TYPE": 0, "CLASSIFICATION_TYPE": "U", "NORAD_CAT_ID": 60989, "ELEMENT_SET_NO": 999, "REV_AT_EPOCH": 6766, "BSTAR": 7.3686296e-05, "MEAN_MOTION_DOT": 1.5e-06, "MEAN_MOTION_DDOT": 0}, "tle": {"line1": "1 60989U 24157A   25356.10969639  .00000150  00000+0  73686-4 0  9994", "line2": "2 60989  98.5671  68.4569 0001193  95.0790 265.0529 14.30821207 67664"}}, "geometry": {"type": "Point", "coordinates": [178.8303255953774, -80.90306265775858]}}, {"type": "Feature", "properties": {"norad_id": 61735, "name": "IONOSFERA-M 1", "group": "resource", "lat": -59.4879691582865, "lon": 31.430606471955127, "alt_km": 823.4895722116253, "timestamp": "2025-12-22T18:58:53.078710+00:00", "meta": {"OBJECT_NAME": "IONOSFERA-M 1", "OBJECT_ID": "2024-199A", "EPOCH": "2025-12-22T06:02:19.942080", "MEAN_MOTION": 14.22716101, "ECCENTRICITY": 4.952e-05, "INCLINATION": 98.7397, "RA_OF_ASC_NODE": 226.0266, "ARG_OF_PERICENTER": 8.5162, "MEAN_ANOMALY": 351.6024, "EPHEMERIS_TYPE": 0, "CLASSIFICATION_TYPE": "U", "NORAD_CAT_ID": 61735, "ELEMENT_SET_NO": 999, "REV_AT_EPOCH": 10254, "BSTAR": 4.8698348e-05, "MEAN_MOTION_DOT": 6.5e-07, "MEAN_MOTION_DDOT": 0}, "tle": {"line1": "1 61735U 24199A   25356.25161970  .00000065  00000+0  48698-4 0  9998", "line2": "2 61735  98.7397 226.0266 0000495   8.5162 351.6024 14.22716101102549"}}, "geometry": {"type": "Point", "coordinates": [31.430606471955127, -59.4879691582865]}}, {"type": "Feature", "properties": {"norad_id": 61736, "name": "IONOSFERA-M 2", "group": "resource", "lat": 61.9814775584308, "lon": -150.32915590309005, "alt_km": 809.007482362249, "timestamp": "2025-12-22T18:58:53.078721+00:00", "meta": {"OBJECT_NAME": "IONOSFERA-M 2", "OBJECT_ID": "2024-199B", "EPOCH": "2025-12-22T06:52:12.226368", "MEAN_MOTION": 14.2271826, "ECCENTRICITY": 0.00018302, "INCLINATION": 98.7396, "RA_OF_ASC_NODE": 225.9733, "ARG_OF_PERICENTER": 98.3021, "MEAN_ANOMALY": 261.8365, "EPHEMERIS_TYPE": 0, "CLASSIFICATION_TYPE": "U", "NORAD_CAT_ID": 61736, "ELEMENT_SET_NO": 999, "REV_AT_EPOCH": 10567, "BSTAR": 4.7965486e-05, "MEAN_MOTION_DOT": 6.3e-07, "MEAN_MOTION_DDOT": 0}, "tle": {"line1": "1 61736U 24199B   25356.28625262  .00000063  00000+0  47965-4 0  9995", "line2": "2 61736  98.7396 225.9733 0001830  98.3021 261.8365 14.22718260105676"}}, "geometry": {"type": "Point", "coordinates": [-150.32915590309005, 61.9814775584308]}}, {"type": "Feature", "properties": {"norad_id": 63772, "name": "BIOMASS", "group": "resource", "lat": 72.59592724510428, "lon": 154.74234012219645, "alt_km": 661.2014417466407, "timestamp": "2025-12-22T18:58:53.078731+00:00", "meta": {"OBJECT_NAME": "BIOMASS", "OBJECT_ID": "2025-090A", "EPOCH": "2025-12-22T05:33:07.604928", "MEAN_MOTION": 14.67537157, "ECCENTRICITY": 0.00010777, "INCLINATION": 98.0697, "RA_OF_ASC_NODE": 181.1027, "ARG_OF_PERICENTER": 82.3391, "MEAN_ANOMALY": 277.7936, "EPHEMERIS_TYPE": 0, "CLASSIFICATION_TYPE": "U", "NORAD_CAT_ID": 63772, "ELEMENT_SET_NO": 999, "REV_AT_EPOCH": 3473, "BSTAR": 0.00022220591, "MEAN_MOTION_DOT": 1.212e-05, "MEAN_MOTION_DDOT": 0}, "tle": {"line1": "1 63772U 25090A   25356.23133802  .00001212  00000+0  22221-3 0  9991", "line2": "2 63772  98.0697 181.1027 0001077  82.3391 277.7936 14.67537157 34731"}}, "geometry": {"type": "Point", "coordinates": [154.74234012219645, 72.59592724510428]}}, {"type": "Feature", "properties": {"norad_id": 64694, "name": "GOSAT-GW (IBUKI GW)", "group": "resource", "lat": -73.05008539881803, "lon": -40.23299172670078, "alt_km": 677.0912100132691, "timestamp": "2025-12-22T18:58:53.078741+00:00", "meta": {"OBJECT_NAME": "GOSAT-GW (IBUKI GW)", "OBJECT_ID": "2025-141A", "EPOCH": "2025-12-22T06:13:55.733376", "MEAN_MOTION": 14.67563406, "ECCENTRICITY": 0.00014296, "INCLINATION": 98.0437, "RA_OF_ASC_NODE": 291.6005, "ARG_OF_PERICENTER": 84.4046, "MEAN_ANOMALY": 275.7322, "EPHEMERIS_TYPE": 0, "CLASSIFICATION_TYPE": "U", "NORAD_CAT_ID": 64694, "ELEMENT_SET_NO": 999, "REV_AT_EPOCH": 2589, "BSTAR": 0.00017800889, "MEAN_MOTION_DOT": 9.62e-06, "MEAN_MOTION_DDOT": 0}, "tle": {"line1": "1 64694U 25141A   25356.25967284  .00000962  00000+0  17801-3 0  9992", "line2": "2 64694  98.0437 291.6005 0001429  84.4046 275.7322 14.67563406 25891"}}, "geometry": {"type": "Point", "coordinates": [-40.23299172670078, -73.05008539881803]}}, {"type": "Feature", "properties": {"norad_id": 64876, "name": "IONOSFERA-M 3", "group": "resource", "lat": 60.18057539972261, "lon": -56.898712036486536, "alt_km": 813.274176993652, "timestamp": "2025-12-22T18:58:53.078751+00:00", "meta": {"OBJECT_NAME": "IONOSFERA-M 3", "OBJECT_ID": "2025-155A", "EPOCH": "2025-12-22T06:52:06.009888", "MEAN_MOTION": 14.21443295, "ECCENTRICITY": 0.00019506, "INCLINATION": 98.5796, "RA_OF_ASC_NODE": 317.8826, "ARG_OF_PERICENTER": 44.4446, "MEAN_ANOMALY": 315.6888, "EPHEMERIS_TYPE": 0, "CLASSIFICATION_TYPE": "U", "NORAD_CAT_ID": 64876, "ELEMENT_SET_NO": 999, "REV_AT_EPOCH": 2127, "BSTAR": 5.5732244e-05, "MEAN_MOTION_DOT": 7.9e-07, "MEAN_MOTION_DDOT": 0}, "tle": {"line1": "1 64876U 25155A   25356.28618067  .00000079  00000+0  55732-4 0  9999", "line2": "2 64876  98.5796 317.8826 0001950  44.4446 315.6888 14.21443295 21279"}}, "geometry": {"type": "Point", "coordinates": [-56.898712036486536, 60.18057539972261]}}, {"type": "Feature", "properties": {"norad_id": 64877, "name": "IONOSFERA-M 4", "group": "resource", "lat": -60.94227731046054, "lon": 122.52678259534977, "alt_km": 828.5701182600878, "timestamp": "2025-12-22T18:58:53.078761+00:00", "meta": {"OBJECT_NAME": "IONOSFERA-M 4", "OBJECT_ID": "2025-155B", "EPOCH": "2025-12-22T06:01:13.325088", "MEAN_MOTION": 14.21444384, "ECCENTRICITY": 0.0001364, "INCLINATION": 98.5795, "RA_OF_ASC_NODE": 317.7677, "ARG_OF_PERICENTER": 54.3088, "MEAN_ANOMALY": 305.8217, "EPHEMERIS_TYPE": 0, "CLASSIFICATION_TYPE": "U", "NORAD_CAT_ID": 64877, "ELEMENT_SET_NO": 999, "REV_AT_EPOCH": 2126, "BSTAR": 4.6857978e-05, "MEAN_MOTION_DOT": 6e-07, "MEAN_MOTION_DDOT": 0}, "tle": {"line1": "1 64877U 25155B   25356.25084867  .00000060  00000+0  46858-4 0  9991", "line2": "2 64877  98.5795 317.7677 0001364  54.3088 305.8217 14.21444384 21269"}}, "geometry": {"type": "Point", "coordinates": [122.52678259534977, -60.94227731046054]}}, {"type": "Feature", "properties": {"norad_id": 64899, "name": "MICROCARB", "group": "resource", "lat": 63.99689105778134, "lon": 55.21518437015877, "alt_km": 640.1395354408469, "timestamp": "2025-12-22T18:58:53.078772+00:00", "meta": {"OBJECT_NAME": "MICROCARB", "OBJECT_ID": "2025-156A", "EPOCH": "2025-12-22T04:00:16.111296", "MEAN_MOTION": 14.72071696, "ECCENTRICITY": 0.00175613, "INCLINATION": 98.0014, "RA_OF_ASC_NODE": 71.3608, "ARG_OF_PERICENTER": 116.4521, "MEAN_ANOMALY": 243.8491, "EPHEMERIS_TYPE": 0, "CLASSIFICATION_TYPE": "U", "NORAD_CAT_ID": 64899, "ELEMENT_SET_NO": 999, "REV_AT_EPOCH": 2192, "BSTAR": 0.00011167733, "MEAN_MOTION_DOT": 6.54e-06, "MEAN_MOTION_DDOT": 0}, "tle": {"line1": "1 64899U 25156A   25356.16685314  .00000654  00000+0  11168-3 0  9994", "line2": "2 64899  98.0014  71.3608 0017561 116.4521 243.8491 14.72071696 21923"}}, "geometry": {"type": "Point", "coordinates": [55.21518437015877, 63.99689105778134]}}, {"type": "Feature", "properties": {"norad_id": 64900, "name": "CO3D 3", "group": "resource", "lat": 45.09769165262237, "lon": 65.48580338611623, "alt_km": 500.56644816354947, "timestamp": "2025-12-22T18:58:53.078782+00:00", "meta": {"OBJECT_NAME": "CO3D 3", "OBJECT_ID": "2025-156B", "EPOCH": "2025-12-22T06:08:37.268160", "MEAN_MOTION": 15.20206821, "ECCENTRICITY": 0.00013541, "INCLINATION": 97.4341, "RA_OF_ASC_NODE": 72.4871, "ARG_OF_PERICENTER": 76.2175, "MEAN_ANOMALY": 283.9211, "EPHEMERIS_TYPE": 0, "CLASSIFICATION_TYPE": "U", "NORAD_CAT_ID": 64900, "ELEMENT_SET_NO": 999, "REV_AT_EPOCH": 2265, "BSTAR": 0.0002833908, "MEAN_MOTION_DOT": 6.073e-05, "MEAN_MOTION_DDOT": 0}, "tle": {"line1": "1 64900U 25156B   25356.25598690  .00006073  00000+0  28339-3 0  9996", "line2": "2 64900  97.4341  72.4871 0001354  76.2175 283.9211 15.20206821 22657"}}, "geometry": {"type": "Point", "coordinates": [65.48580338611623, 45.09769165262237]}}, {"type": "Feature", "properties": {"norad_id": 64901, "name": "CO3D 4", "group": "resource", "lat": 44.2666668409953, "lon": 65.70221722058604, "alt_km": 501.918703062257, "timestamp": "2025-12-22T18:58:53.078792+00:00", "meta": {"OBJECT_NAME": "CO3D 4", "OBJECT_ID": "2025-156C", "EPOCH": "2025-12-22T06:08:50.560800", "MEAN_MOTION": 15.20214251, "ECCENTRICITY": 0.00013282, "INCLINATION": 97.434, "RA_OF_ASC_NODE": 72.4871, "ARG_OF_PERICENTER": 164.9387, "MEAN_ANOMALY": 195.1888, "EPHEMERIS_TYPE": 0, "CLASSIFICATION_TYPE": "U", "NORAD_CAT_ID": 64901, "ELEMENT_SET_NO": 999, "REV_AT_EPOCH": 2265, "BSTAR": 0.00029882235, "MEAN_MOTION_DOT": 6.409e-05, "MEAN_MOTION_DDOT": 0}, "tle": {"line1": "1 64901U 25156C   25356.25614075  .00006409  00000+0  29882-3 0  9990", "line2": "2 64901  97.4340  72.4871 0001328 164.9387 195.1888 15.20214251 22658"}}, "geometry": {"type": "Point", "coordinates": [65.70221722058604, 44.2666668409953]}}]}